STARLINK-2011           
1 47350U 21005B   22287.27294739  .00000143  00000+0  28476-4 0  9999
2 47350  53.0543 239.0538 0001468  71.7186 288.3963 15.06396289 96452
STARLINK-2017           
1 47351U 21005C   22287.03611446  .00007621  00000+0  52985-3 0  9991
2 47351  53.0544 200.0972 0001345 101.2655 258.8485 15.06406448 96964
STARLINK-2034           
1 47352U 21005D   22286.85643669  .00002903  00000+0  21369-3 0  9993
2 47352  53.0540 240.9221 0001360  74.3918 285.7221 15.06398797 95716
STARLINK-2045           
1 47353U 21005E   22286.14828828  .00000301  00000+0  39110-4 0  9992
2 47353  53.0568 189.1019 0001415 105.1152 254.9993 15.06389191 96386
STARLINK-2046           
1 47354U 21005F   22287.09004414  .00003303  00000+0  24052-3 0  9998
2 47354  53.0544 204.8570 0001402  97.1000 263.0148 15.06396472 96907
STARLINK-2047           
1 47355U 21005G   22287.11169366  .00002956  00000+0  21722-3 0  9994
2 47355  53.0530 189.7574 0001414  92.2228 267.8922 15.06406920 97115
STARLINK-2049           
1 47356U 21005H   22286.49429819  .00001386  00000+0  11191-3 0  9992
2 47356  53.0545 212.5421 0001228  83.8628 276.2500 15.06396881 96086
STARLINK-2050           
1 47357U 21005J   22287.09971158  .00001081  00000+0  91476-4 0  9995
2 47357  53.0550 239.8269 0001284  79.7130 280.4004 15.06395234 96705
STARLINK-2055           
1 47358U 21005K   22286.23902767  .00003798  00000+0  27381-3 0  9991
2 47358  53.0545 213.6903 0001233  88.6632 271.4498 15.06391518 96040
STARLINK-2069           
1 47359U 21005L   22287.24576576  .00005077  00000+0  35941-3 0  9992
2 47359  53.0540 234.1624 0001479  75.1108 285.0044 15.06410594 96500
STARLINK-2070           
1 47360U 21005M   22287.05317575  .00005301  00000+0  37435-3 0  9995
2 47360  53.0536 205.0377 0001349  94.7746 265.3397 15.06413041 96243
STARLINK-2071           
1 47361U 21005N   22286.84446347  .00003852  00000+0  27735-3 0  9993
2 47361  53.0544 210.9783 0001338  98.0814 262.0327 15.06398052 96139
STARLINK-2076           
1 47362U 21005P   22287.15499879 -.00001201  00000+0 -61731-4 0  9990
2 47362  53.0558 239.5813 0001276  82.9977 277.1157 15.06414117 95766
STARLINK-2077           
1 47363U 21005Q   22287.09233665  .00001603  00000+0  12647-3 0  9998
2 47363  53.0553 239.8428 0001789  55.6002 304.5156 15.06398071 95755
STARLINK-2081           
1 47366U 21005T   22286.58736919  .00001663  00000+0  13053-3 0  9992
2 47366  53.0558 242.1316 0001447  78.8194 281.2958 15.06391594 95671
STARLINK-2082           
1 47367U 21005U   22287.14394595  .00002376  00000+0  17836-3 0  9991
2 47367  53.0530 239.6119 0001466  77.5506 282.5647 15.06395862 95769
STARLINK-2084           
1 47368U 21005V   22286.27406325  .00001595  00000+0  12596-3 0  9990
2 47368  53.0550 243.5255 0001293  79.9838 280.1296 15.06393803 95632
STARLINK-2085           
1 47369U 21005W   22287.20750313  .00004818  00000+0  34205-3 0  9996
2 47369  53.0534 219.3194 0001390  88.3033 271.8115 15.06404637 97016
STARLINK-2086           
1 47370U 21005X   22287.03337296  .00006412  00000+0  44885-3 0  9997
2 47370  53.0548 200.1343 0001458  80.7567 279.3587 15.06408053 96314
STARLINK-2088           
1 47371U 21005Y   22286.62053999  .00002835  00000+0  20913-3 0  9998
2 47371  53.0534 241.9835 0001428  70.4919 289.6224 15.06402887 95683
STARLINK-2089           
1 47372U 21005Z   22287.14628018  .00001532  00000+0  12171-3 0  9997
2 47372  53.0547 234.9380 0001717  62.0008 298.1154 15.06404387 95822
STARLINK-2092           
1 47373U 21005AA  22286.81589601  .00005657  00000+0  39827-3 0  9994
2 47373  53.0558 241.0939 0001190  69.8477 290.2640 15.06405701 95716
STARLINK-2093           
1 47374U 21005AB  22287.10245380  .00002526  00000+0  18841-3 0  9996
2 47374  53.0557 239.8005 0001447  74.6350 285.4799 15.06395965 95759
STARLINK-2094           
1 47375U 21005AC  22287.10708207  .00001998  00000+0  15301-3 0  9999
2 47375  53.0543 239.7854 0001290  74.7426 285.3706 15.06400202 96712
STARLINK-2096           
1 47376U 21005AD  22286.57999362  .00005744  00000+0  40421-3 0  9998
2 47376  53.0543 242.1570 0001620  68.5849 291.5312 15.06401379 95675
STARLINK-2097           
1 47377U 21005AE  22287.16237100  .00004331  00000+0  30944-3 0  9990
2 47377  53.0533 239.5416 0001379  85.3210 274.7936 15.06404074 95764
STARLINK-2098           
1 47378U 21005AF  22287.15500482  .00006289  00000+0  44056-3 0  9999
2 47378  53.0523 199.5851 0001364  96.5433 263.5712 15.06412957 96327
STARLINK-2099           
1 47379U 21005AG  22287.02967679  .00020721  00000+0  14042-2 0  9999
2 47379  53.0530 200.1496 0001384  99.9777 260.1369 15.06445354 96306
STARLINK-2100           
1 47380U 21005AH  22287.05825094  .00001842  00000+0  14253-3 0  9996
2 47380  53.0563 210.0045 0001497  94.1395 265.9765 15.06394335 97117
STARLINK-2101           
1 47381U 21005AJ  22287.07438413  .00002551  00000+0  19012-3 0  9990
2 47381  53.0538 215.0153 0001319  90.9191 269.1949 15.06397492 97067
STARLINK-2102           
1 47382U 21005AK  22286.52009835  .00003827  00000+0  27568-3 0  9994
2 47382  53.0550 212.4330 0001407  98.0876 262.0273 15.06397034 96082
STARLINK-2103           
1 47383U 21005AL  22287.13564215  .00006121  00000+0  42949-3 0  9991
2 47383  53.0536 199.6617 0001537  81.5704 278.5459 15.06398735 96326
STARLINK-2104           
1 47384U 21005AM  22286.57173167  .00002448  00000+0  18319-3 0  9993
2 47384  53.0546 212.4272 0001338  95.4306 264.6836 15.06392412 96095
STARLINK-2105           
1 47385U 21005AN  22287.16513012 -.00003986  00000+0 -24861-3 0  9996
2 47385  53.0543 209.5285 0001260  77.0917 283.0213 15.06430544 96792
STARLINK-2106           
1 47386U 21005AP  22286.79655005  .00003528  00000+0  25565-3 0  9996
2 47386  53.0546 211.1922 0001341  83.3960 276.7182 15.06399402 96130
STARLINK-2108           
1 47387U 21005AQ  22287.18080700  .00000136  00000+0  28023-4 0  9990
2 47387  53.0542 239.4578 0001445  90.0148 270.1006 15.06398411 95765
STARLINK-2109           
1 47388U 21005AR  22287.19554578  .00001802  00000+0  13988-3 0  9995
2 47388  53.0553 239.3880 0001426  81.5323 278.5828 15.06396505 96725
STARLINK-2110           
1 47389U 21005AS  22287.10798201  .00001188  00000+0  98651-4 0  9998
2 47389  53.0540 219.7851 0001348  84.7568 275.3575 15.06396733 96032
STARLINK-2111           
1 47390U 21005AT  22286.57261949  .00001602  00000+0  12643-3 0  9991
2 47390  53.0550 242.1964 0001434  68.9981 291.1162 15.06394014 95676
STARLINK-2112           
1 47391U 21005AU  22286.51547062  .00003238  00000+0  23619-3 0  9991
2 47391  53.0535 212.4470 0001437  77.1582 282.9568 15.06396531 96084
STARLINK-2113           
1 47392U 21005AV  22286.51641614  .00005090  00000+0  36037-3 0  9996
2 47392  53.0540 212.4474 0001372 105.9955 254.1185 15.06398900 96085
STARLINK-2114           
1 47393U 21005AW  22287.07349781  .00005151  00000+0  36438-3 0  9992
2 47393  53.0532 185.2836 0001356 123.2300 236.8819 15.06409587 96518
STARLINK-2115           
1 47394U 21005AX  22287.07163299  .00001971  00000+0  15120-3 0  9992
2 47394  53.0571 205.1226 0001316  99.7862 260.3276 15.06391185 96853
STARLINK-2117           
1 47395U 21005AY  22286.76061581  .00001370  00000+0  11089-3 0  9992
2 47395  53.0550 201.3490 0001231 106.5321 253.5803 15.06386071 96268
STARLINK-2118           
1 47396U 21005AZ  22287.13564503  .00002704  00000+0  20034-3 0  9999
2 47396  53.0551 209.6660 0001154 104.7466 255.3650 15.06401890 96799
STARLINK-2119           
1 47397U 21005BA  22287.13288793  .00001431  00000+0  11493-3 0  9999
2 47397  53.0540 239.6635 0001390  75.1285 284.9858 15.06395583 95760
STARLINK-2120           
1 47398U 21005BB  22286.50904430  .00005211  00000+0  36844-3 0  9990
2 47398  53.0549 212.4868 0001211  91.0126 269.1001 15.06400860 96086
STARLINK-2121           
1 47399U 21005BC  22287.14213739  .00007221  00000+0  50308-3 0  9991
2 47399  53.0542 219.8744 0001146  91.3166 268.7954 15.06406140 96032
STARLINK-2122           
1 47400U 21005BD  22286.83801558  .00001752  00000+0  13647-3 0  9999
2 47400  53.0557 201.0111 0001132 100.4214 259.6902 15.06399803 96278
STARLINK-2123           
1 47401U 21005BE  22287.05455860  .00002739  00000+0  20268-3 0  9999
2 47401  53.0545 210.0363 0001202  87.9491 272.1636 15.06396871 96781
STARLINK-2124           
1 47402U 21005BF  22287.07298485  .00002392  00000+0  17940-3 0  9998
2 47402  53.0554 209.9461 0001276  85.2084 274.9051 15.06403242 96780
STARLINK-2127           
1 47403U 21005BG  22286.21785551  .00001104  00000+0  92981-4 0  9998
2 47403  53.0537 213.7878 0001281  89.2478 270.8657 15.06396362 96044
STARLINK-2128           
1 47404U 21005BH  22287.14302995  .00007523  00000+0  52324-3 0  9996
2 47404  53.0541 209.6383 0001177  99.9564 260.1558 15.06410182 96794
STARLINK-2130           
1 47405U 21005BJ  22286.32935306  .00001110  00000+0  93423-4 0  9996
2 47405  53.0551 243.2745 0001329  63.0236 297.0888 15.06384828 95633
STARLINK-2133           
1 47406U 21005BK  22286.22523747  .00000548  00000+0  55718-4 0  9997
2 47406  53.0546 213.7603 0001344 109.4185 250.6949 15.06391731 96048
STARLINK-2134           
1 47407U 21005BL  22286.82971497  .00004721  00000+0  33551-3 0  9990
2 47407  53.0547 211.0459 0001102 106.5925 253.5186 15.06408318 96137
STARLINK-2135           
1 47408U 21005BM  22286.26946465  .00005327  00000+0  37624-3 0  9994
2 47408  53.0538 213.5614 0001332 114.9558 245.1570 15.06397133 96055
